SatCatId,ObjectName,LaunchYear,OrbitalPeriod,LaunchMass,StatusCode,Inclination,Status,UcsData,OrbitClassEstimated,LaunchSiteCountry,Owner,UseType,Purpose,LaunchVehicleClass,TLE1,TLE2,MeanMotion,Eccentricity,OrbitClass
60505,FLOCK 4BE-24,2024,94.76,-1.0,+,97.43,Active,0,LEO,USA,USA,Unknown,Unknown,Unknown,1 60505U 24149AP  24276.21343316  .00026142  00000+0  12257-2 0  9993,2 60505  97.4348 351.0494 0005220 342.5171  17.5883 15.19644542  7045,15.19644542,0.000522,LEO
60506,LUR-1,2024,94.8,-1.0,+,97.44,Active,0,LEO,USA,Spain,Unknown,Unknown,Unknown,1 60506U 24149AQ  24276.15670313  .00015356  00000+0  73522-3 0  9995,2 60506  97.4382 350.9955 0004512 356.8044   3.3161 15.19034352  7037,15.19034352,0.0004512,LEO
60507,TANAGER-1,2024,94.76,-1.0,+,97.44,Active,0,LEO,USA,USA,Unknown,Unknown,Unknown,1 60507U 24149AR  24274.17460411  .00022540  00000+0  10604-2 0  9996,2 60507  97.4385 349.0578 0004854 352.8476   7.2689 15.19560874  6732,15.19560874,0.0004854,LEO
60508,EAGLEEYE,2024,94.73,-1.0,+,97.44,Active,0,LEO,USA,Poland,Unknown,Unknown,Unknown,1 60508U 24149AS  24276.20609255  .00034509  00000+0  15906-2 0  9992,2 60508  97.4371 351.0719 0004527 347.9771  12.1356 15.20177362  7047,15.20177362,0.0004527,LEO
60509,FLOCK 4BE-29,2024,94.75,-1.0,+,97.44,Active,0,LEO,USA,USA,Unknown,Unknown,Unknown,1 60509U 24149AT  24276.21095961  .00026235  00000+0  12258-2 0  9991,2 60509  97.4423 351.1049 0003928 356.9146   3.2064 15.19769242  7042,15.19769242,0.0003928,LEO
60510,OBJECT AU,2024,94.76,-1.0,+,97.44,Active,0,LEO,USA,To Be Determined,Unknown,Unknown,Unknown,1 60510U 24149AU  24276.21276442  .00024812  00000+0  11641-2 0  9992,2 60510  97.4364 351.0578 0004881 355.4142   4.7047 15.19635211  7048,15.19635211,0.0004881,LEO
60511,FLOCK 4BE-2,2024,94.74,-1.0,+,97.44,Active,0,LEO,USA,USA,Unknown,Unknown,Unknown,1 60511U 24149AV  24276.20540139  .00025759  00000+0  11976-2 0  9991,2 60511  97.4431 351.1142 0003875 357.3481   2.7733 15.19944618  7045,15.19944618,0.0003875,LEO
60512,FLOCK 4BE-13,2024,94.76,-1.0,+,97.43,Active,0,LEO,USA,USA,Unknown,Unknown,Unknown,1 60512U 24149AW  24276.21090164  .00025803  00000+0  12084-2 0  9992,2 60512  97.4339 351.0500 0005609 346.2925  13.8157 15.19686150  7044,15.1968615,0.0005609,LEO
60513,FLOCK 4BE-27,2024,94.77,-1.0,+,97.44,Active,0,LEO,USA,USA,Unknown,Unknown,Unknown,1 60513U 24149AX  24276.21079214  .00018165  00000+0  85708-3 0  9993,2 60513  97.4428 351.1029 0004980   4.1894 355.9382 15.19504804  7042,15.19504804,0.000498,LEO
60514,FLOCK 4BE-9,2024,94.75,-1.0,+,97.44,Active,0,LEO,USA,USA,Unknown,Unknown,Unknown,1 60514U 24149AY  24275.48228070  .00021248  00000+0  99390-3 0  9996,2 60514  97.4411 350.3860 0003959   9.4092 350.7216 15.19775180  6935,15.1977518,0.0003959,LEO
60515,FLOCK 4BE-8,2024,94.76,-1.0,+,97.44,Active,0,LEO,USA,USA,Unknown,Unknown,Unknown,1 60515U 24149AZ  24273.17835388  .00030365  00000+0  14229-2 0  9994,2 60515  97.4364 348.0794 0005621  11.1867 348.9492 15.19630158  6582,15.19630158,0.0005621,LEO
60516,FLOCK 4BE-6,2024,94.75,-1.0,+,97.44,Active,0,LEO,USA,USA,Unknown,Unknown,Unknown,1 60516U 24149BA  24276.20573381  .00020748  00000+0  97071-3 0  9995,2 60516  97.4419 351.1038 0004344   5.8449 354.2836 15.19771208  7043,15.19771208,0.0004344,LEO
60517,FLOCK 4BE-14,2024,94.73,-1.0,+,97.44,Active,0,LEO,USA,USA,Unknown,Unknown,Unknown,1 60517U 24149BB  24276.19843151  .00024904  00000+0  11519-2 0  9999,2 60517  97.4360 351.0786 0005841 353.5928   6.5232 15.20121084  7046,15.20121084,0.0005841,LEO
60518,FLOCK 4BE-1,2024,94.73,-1.0,+,97.44,Active,0,LEO,USA,USA,Unknown,Unknown,Unknown,1 60518U 24149BC  24276.20010309  .00025241  00000+0  11690-2 0  9998,2 60518  97.4407 351.1055 0005202   1.0111 359.1134 15.20077295  7041,15.20077295,0.0005202,LEO
60519,FLOCK 4BE-28,2024,94.73,-1.0,+,97.44,Active,0,LEO,USA,USA,Unknown,Unknown,Unknown,1 60519U 24149BD  24276.20132726  .00025815  00000+0  11953-2 0  9996,2 60519  97.4374 351.0824 0006657 356.0456   4.0725 15.20073826  7046,15.20073826,0.0006657,LEO
60520,IPERDRONE.0,2024,94.69,-1.0,+,97.44,Active,0,LEO,USA,Italy,Unknown,Unknown,Unknown,1 60520U 24149BE  24276.19107032  .00032978  00000+0  14970-2 0  9998,2 60520  97.4377 351.0996 0006059 349.4212  10.6895 15.20705967  7042,15.20705967,0.0006059,LEO
60521,OBJECT BF,2024,94.68,-1.0,+,97.44,Active,0,LEO,USA,To Be Determined,Unknown,Unknown,Unknown,1 60521U 24149BF  24276.18528840  .00033691  00000+0  15165-2 0  9992,2 60521  97.4398 351.1194 0005911 353.8239   6.2922 15.20992820  7049,15.2099282,0.0005911,LEO
60522,CONNECTA IOT-2,2024,94.75,-1.0,+,97.44,Active,0,LEO,USA,Turkey,Unknown,Unknown,Unknown,1 60522U 24149BG  24276.20171457  .00015185  00000+0  71244-3 0  9993,2 60522  97.4423 351.1103 0006932   3.0553 357.0723 15.19729705  7040,15.19729705,0.0006932,LEO
60523,PTD-R (TYVAK-0127),2024,94.65,-1.0,+,97.44,Active,0,LEO,USA,USA,Unknown,Unknown,Unknown,1 60523U 24149BH  24276.17876096  .00040450  00000+0  17992-2 0  9993,2 60523  97.4350 351.0997 0006724 345.5138  14.5904 15.21353505  7042,15.21353505,0.0006724,LEO
60524,CONNECTA IOT-4,2024,94.75,-1.0,+,97.44,Active,0,LEO,USA,Turkey,Unknown,Unknown,Unknown,1 60524U 24149BJ  24276.20073725  .00014972  00000+0  70254-3 0  9997,2 60524  97.4387 351.0886 0007675 356.8195   3.2990 15.19721805  7043,15.19721805,0.0007675,LEO
60525,OBJECT BK,2024,94.7,-1.0,+,97.43,Active,0,LEO,USA,To Be Determined,Unknown,Unknown,Unknown,1 60525U 24149BK  24276.18855774  .00026740  00000+0  12213-2 0  9993,2 60525  97.4335 351.0799 0008029 347.3460  12.7573 15.20528485  7047,15.20528485,0.0008029,LEO
60526,DEIMOS,2024,94.7,-1.0,+,97.44,Active,0,LEO,USA,USA,Unknown,Unknown,Unknown,1 60526U 24149BL  24276.18747482  .00026432  00000+0  12065-2 0  9993,2 60526  97.4396 351.1178 0008088 353.6484   6.4648 15.20551019  7040,15.20551019,0.0008088,LEO
60527,CUAVA-2,2024,94.71,-1.0,+,97.43,Active,0,LEO,USA,Australia,Unknown,Unknown,Unknown,1 60527U 24149BM  24276.18802380  .00025558  00000+0  11694-2 0  9998,2 60527  97.4345 351.0872 0008359 346.4192  13.6817 15.20473883  7042,15.20473883,0.0008359,LEO
60528,ERNST,2024,94.74,-1.0,+,97.44,Active,0,LEO,USA,Germany,Unknown,Unknown,Unknown,1 60528U 24149BN  24276.19651460  .00015892  00000+0  74141-3 0  9998,2 60528  97.4411 351.1111 0008530 357.6155   2.5038 15.19903244  7047,15.19903244,0.000853,LEO
60529,GAINDESAT-1A,2024,94.62,-1.0,+,97.44,Active,0,LEO,USA,Republic of Senegal,Unknown,Unknown,Unknown,1 60529U 24149BP  24276.16755500  .00042622  00000+0  18680-2 0  9992,2 60529  97.4416 351.1551 0007923 346.4158  13.6864 15.21837976  7046,15.21837976,0.0007923,LEO
60530,TORO,2024,96.53,-1.0,+,97.74,Active,0,LEO,USA,Taiwan,Unknown,Unknown,Unknown,1 60530U 24149BQ  24276.19048811  .00009025  00000+0  90162-3 0  9993,2 60530  97.7440 350.8462 0001004  97.5396 262.5936 14.91710536  6904,14.91710536,0.0001004,LEO
60531,HYPSO-2,2024,96.52,-1.0,+,97.74,Active,0,LEO,USA,Norway,Unknown,Unknown,Unknown,1 60531U 24149BR  24276.45559047  .00012919  00000+0  12801-2 0  9990,2 60531  97.7435 351.1116 0000719 123.4483 236.6805 14.91942426  6943,14.91942426,7.19e-05,LEO
60532,LEMU-NGE,2024,96.52,-1.0,+,97.75,Active,0,LEO,USA,Chile,Unknown,Unknown,Unknown,1 60532U 24149BS  24276.45283639  .00011815  00000+0  11703-2 0  9996,2 60532  97.7465 351.1310 0000908  71.2888 288.8430 14.91979491  6947,14.91979491,9.08e-05,LEO
60533,LEMUR-2-STELLA,2024,96.45,-1.0,+,97.74,Active,0,LEO,USA,USA,Unknown,Unknown,Unknown,1 60533U 24149BT  24276.16950150  .00029233  00000+0  28065-2 0  9996,2 60533  97.7420 350.8586 0000452 191.6314 168.4895 14.93013054  6905,14.93013054,4.52e-05,LEO
60534,SATELIOT_2,2024,96.52,-1.0,+,97.75,Active,0,LEO,USA,Spain,Unknown,Unknown,Unknown,1 60534U 24149BU  24276.18446087  .00008265  00000+0  82230-3 0  9995,2 60534  97.7463 350.8657 0001526  75.6794 284.4594 14.91900301  6912,14.91900301,0.0001526,LEO
60535,NIGHTJAR,2024,96.51,-1.0,+,97.75,Active,0,LEO,USA,Taiwan,Unknown,Unknown,Unknown,1 60535U 24149BV  24276.44966487  .00013238  00000+0  13052-2 0  9997,2 60535  97.7479 351.1455 0001769  69.4404 290.7004 14.92134789 49753,14.92134789,0.0001769,LEO
60536,LEMUR-2-MARHISYAM,2024,96.45,-1.0,+,97.74,Active,0,LEO,USA,USA,Unknown,Unknown,Unknown,1 60536U 24149BW  24276.16880210  .00027230  00000+0  26188-2 0  9997,2 60536  97.7388 350.8468 0000346 321.2287  38.8908 14.92960670  6901,14.9296067,3.46e-05,LEO
60537,SATELIOT_4,2024,96.51,-1.0,+,97.74,Active,0,LEO,USA,Spain,Unknown,Unknown,Unknown,1 60537U 24149BX  24276.44860724  .00009427  00000+0  93367-3 0  9999,2 60537  97.7375 351.0850 0001390 355.1959   4.9246 14.92044867  6942,14.92044867,0.000139,LEO
60538,OBJECT BY,2024,96.46,-1.0,+,97.75,Active,0,LEO,USA,To Be Determined,Unknown,Unknown,Unknown,1 60538U 24149BY  24276.16618969  .00017846  00000+0  17281-2 0  9995,2 60538  97.7460 350.8905 0001989  37.8555 322.2803 14.92783994  6414,14.92783994,0.0001989,LEO
60539,ICEYE-X43,2024,96.46,-1.0,+,97.74,Active,0,LEO,USA,Finland,Unknown,Unknown,Unknown,1 60539U 24149BZ  24276.42855418  .00016042  00000+0  15519-2 0  9996,2 60539  97.7405 351.1290 0003415   8.2244 351.9030 14.92844714  6945,14.92844714,0.0003415,LEO
60540,HAWK-10A,2024,96.48,-1.0,+,97.75,Active,0,LEO,USA,USA,Unknown,Unknown,Unknown,1 60540U 24149CA  24276.16248674  .00008675  00000+0  84815-3 0  9998,2 60540  97.7519 350.9446 0003605  16.2131 343.9203 14.92579687  6901,14.92579687,0.0003605,LEO
60541,UMBRA-09,2024,96.39,-1.0,+,97.74,Active,0,LEO,USA,USA,Unknown,Unknown,Unknown,1 60541U 24149CB  24276.21108216  .00030458  00000+0  28607-2 0  9992,2 60541  97.7447 350.9806 0002821   5.5486 354.5764 14.93870170  6918,14.9387017,0.0002821,LEO
60542,QPS-SAR-8 (AMATERU-IV),2024,96.44,-1.0,+,97.74,Active,0,LEO,USA,Japan,Unknown,Unknown,Unknown,1 60542U 24149CC  24276.42085475  .00019232  00000+0  18413-2 0  9998,2 60542  97.7438 351.1612 0003766  17.0424 343.0921 14.93213616  6943,14.93213616,0.0003766,LEO
